[{"OBJECT_NAME":"CSTP 1.2 (STC 1.2)","OBJECT_ID":"2023-091W","EPOCH":"2026-03-09T23:12:27.821952","MEAN_MOTION":15.2718076,"ECCENTRICITY":0.00204388,"INCLINATION":97.5258,"RA_OF_ASC_NODE":134.3262,"ARG_OF_PERICENTER":84.9592,"MEAN_ANOMALY":275.3979,"EPHEMERIS_TYPE":0,"CLASSIFICATION_TYPE":"U","NORAD_CAT_ID":57186,"ELEMENT_SET_NO":999,"REV_AT_EPOCH":14930,"BSTAR":0.00043035718,"MEAN_MOTION_DOT":0.00011466,"MEAN_MOTION_DDOT":0},{"OBJECT_NAME":"STARLINK-32325","OBJECT_ID":"2024-187Q","EPOCH":"2026-03-09T23:07:32.792736","MEAN_MOTION":15.30182683,"ECCENTRICITY":0.00012693,"INCLINATION":53.1623,"RA_OF_ASC_NODE":63.8974,"ARG_OF_PERICENTER":106.8064,"MEAN_ANOMALY":253.3076,"EPHEMERIS_TYPE":0,"CLASSIFICATION_TYPE":"U","NORAD_CAT_ID":61588,"ELEMENT_SET_NO":999,"REV_AT_EPOCH":7912,"BSTAR":7.785353e-6,"MEAN_MOTION_DOT":-1.29e-6,"MEAN_MOTION_DDOT":0}]
